[{"OBJECT_NAME":"NUSAT-41 (C PAYNE-G)","OBJECT_ID":"2023-084N","EPOCH":"2026-03-09T21:55:54.837696","MEAN_MOTION":15.29680045,"ECCENTRICITY":0.00062175,"INCLINATION":97.5351,"RA_OF_ASC_NODE":204.1011,"ARG_OF_PERICENTER":322.2064,"MEAN_ANOMALY":37.8738,"EPHEMERIS_TYPE":0,"CLASSIFICATION_TYPE":"U","NORAD_CAT_ID":56944,"ELEMENT_SET_NO":999,"REV_AT_EPOCH":15260,"BSTAR":0.00059912824,"MEAN_MOTION_DOT":0.0001718,"MEAN_MOTION_DDOT":0},{"OBJECT_NAME":"STARLINK-32304","OBJECT_ID":"2024-152U","EPOCH":"2026-03-09T22:10:00.364512","MEAN_MOTION":15.30187371,"ECCENTRICITY":7.556e-5,"INCLINATION":53.1585,"RA_OF_ASC_NODE":267.556,"ARG_OF_PERICENTER":91.0556,"MEAN_ANOMALY":269.0531,"EPHEMERIS_TYPE":0,"CLASSIFICATION_TYPE":"U","NORAD_CAT_ID":60738,"ELEMENT_SET_NO":999,"REV_AT_EPOCH":8688,"BSTAR":0.00023968448,"MEAN_MOTION_DOT":6.744e-5,"MEAN_MOTION_DDOT":0}]
